[{"code":"AKU","name":"阿克苏机场","city":"阿克苏","pinyin":"aksu","intl":false,"hot":true,"down":false},{"code":"AAT","name":"阿勒泰机场","city":"阿勒泰","pinyin":"altay","intl":false,"down":false},{"code":"AKA","name":"安康机场","city":"安康","pinyin":"ankang","intl":false,"down":false},{"code":"AQG","name":"安庆(天柱山)机场","city":"安庆","pinyin":"anqing","intl":false,"down":false},{"code":"AOG","name":"鞍山机场","city":"鞍山","pinyin":"anshan","intl":false,"down":false},{"code":"BSD","name":"保山云瑞机场","city":"保山","pinyin":"baoshan","intl":false,"down":false},{"code":"BAV","name":"包头二里半机场","city":"包头","pinyin":"baoto","intl":false,"down":false},{"code":"BPX","name":"西藏昌都邦达机场","city":"昌都","pinyin":"changdu","intl":false,"down":false},{"code":"BHY","name":"北海福城机场","city":"北海","pinyin":"beihai","intl":false,"down":false},{"code":"PEK","name":"北京首都机场","city":"北京","pinyin":"beijingshoudu","intl":false,"need":true,"down":false},{"code":"PKX","name":"北京大兴机场","city":"北京","pinyin":"beijingdaxing","intl":false,"need":true,"down":false},{"code":"NAY","name":"北京南苑机场","city":"北京南苑","pinyin":"beijingnanyuan","intl":false,"hot":true,"need":true,"down":false},{"code":"HUZ","name":"惠州机场","city":"惠州","pinyin":"huizhou","intl":false,"hot":true,"need":true,"down":false},{"code":"RIZ","name":"日照山字河机场","city":"日照","pinyin":"rizhao","intl":false,"hot":true,"need":true,"down":false},{"code":"BFU","name":"蚌埠机场","city":"蚌埠","pinyin":"bengbu","intl":false,"down":false},{"code":"CGQ","name":"长春龙嘉国际机场","city":"长春","pinyin":"changchun","intl":false,"down":false},{"code":"CGD","name":"常德桃花源(斗姆湖)机场","city":"常德","pinyin":"changde","intl":false,"down":false},{"code":"CSX","name":"长沙黄花机场","city":"长沙","pinyin":"changsha","intl":false,"need":true,"down":false},{"code":"CIH","name":"长治王村机场","city":"长治","pinyin":"changzhi","intl":false,"down":false},{"code":"CZX","name":"常州奔牛机场","city":"常州","pinyin":"changzhou","intl":false,"down":false},{"code":"CHG","name":"辽宁朝阳机场","city":"朝阳","pinyin":"chaoyang","intl":false,"down":false},{"code":"CTU","name":"成都双流机场","city":"成都","pinyin":"chengdu","intl":false,"down":false},{"code":"CIF","name":"赤峰玉龙机场","city":"赤峰","pinyin":"chifeng","intl":false,"down":false},{"code":"CKG","name":"重庆江北机场","city":"重庆","pinyin":"chongqing","intl":false,"need":true,"down":false},{"code":"DAX","name":"达州(河市)机场","city":"达州","pinyin":"dazhou","intl":false,"down":false},{"code":"DIG","name":"迪庆香格里拉机场","city":"迪庆","pinyin":"diqing","intl":false,"down":false},{"code":"DLC","name":"大连国际机场","city":"大连","pinyin":"dalian","intl":false,"down":false},{"code":"DLU","name":"大理荒草坝机场","city":"大理","pinyin":"dalixiaguan","intl":false,"down":false},{"code":"DDG","name":"丹东浪头机场","city":"丹东","pinyin":"dandong","intl":false,"down":false},{"code":"DAT","name":"大同云冈机场","city":"大同","pinyin":"datong","intl":false,"down":false},{"code":"DYG","name":"张家界荷花机场","city":"张家界","pinyin":"zhangjiajie","intl":false,"down":false},{"code":"DNH","name":"敦煌机场","city":"敦煌","pinyin":"dunhuang","intl":false,"down":false},{"code":"ENH","name":"恩施机场","city":"恩施","pinyin":"enshi","intl":false,"down":false},{"code":"KRK","name":"克拉科夫机场","city":"克拉科夫","pinyin":"krakow","intl":false,"down":false},{"code":"FYN","name":"富蕴机场","city":"富蕴","pinyin":"fuyun","intl":false,"down":false},{"code":"JNZ","name":"锦州小岭子机场","city":"锦州","pinyin":"jinzhou","intl":false,"hot":true,"down":false},{"code":"KOW","name":"赣州黄金机场","city":"赣州","pinyin":"ganzhou","intl":false,"down":false},{"code":"GOQ","name":"格尔木机场","city":"格尔木","pinyin":"golmud","intl":false,"down":false},{"code":"GHN","name":"广汉机场","city":"广汉","pinyin":"guanghan","intl":false,"down":false},{"code":"CAN","name":"广州白云机场","city":"广州","pinyin":"guangzhou","intl":false,"need":true,"down":false},{"code":"KWL","name":"桂林两江机场","city":"桂林","pinyin":"guilin","intl":false,"down":false},{"code":"KWE","name":"贵阳龙洞堡机场","city":"贵阳","pinyin":"guiyang","intl":false,"down":false},{"code":"HRB","name":"哈尔滨太平机场","city":"哈尔滨","pinyin":"harbin","intl":false,"down":false},{"code":"HAK","name":"海口美兰机场","city":"海口","pinyin":"haikou","intl":false,"need":true,"down":false},{"code":"HLD","name":"内蒙古海拉尔东山机场","city":"海拉尔","pinyin":"hailar","intl":false,"down":false},{"code":"HMI","name":"哈密机场","city":"哈密","pinyin":"hami","intl":false,"down":false},{"code":"HGH","name":"杭州萧山机场","city":"杭州","pinyin":"hangzhou","intl":false,"need":true,"down":false},{"code":"HZG","name":"汉中西关机场","city":"汉中","pinyin":"hanzhong","intl":false,"down":false},{"code":"HFE","name":"合肥新桥机场","city":"合肥","pinyin":"hefei","intl":false,"need":true,"down":false},{"code":"HEK","name":"黑河机场","city":"黑河","pinyin":"heihe","intl":false,"down":false},{"code":"HNY","name":"衡阳东江机场","city":"衡阳","pinyin":"hengyang","intl":false,"hot":true,"down":false},{"code":"HTN","name":"和田机场","city":"和田","pinyin":"hetian","intl":false,"down":false},{"code":"HKG","name":"香港赤鱲角国际机场","city":"香港","pinyin":"hong kong","intl":false,"down":false},{"code":"TXN","name":"黄山屯溪机场","city":"黄山","pinyin":"huangshan","intl":false,"down":false},{"code":"HYN","name":"台州路桥(原黄岩路桥)机场","city":"台州","pinyin":"taizhou","intl":false,"down":false},{"code":"HET","name":"呼和浩特白塔国际机场","city":"呼和浩特","pinyin":"hohhot","intl":false,"down":false},{"code":"JMU","name":"佳木斯机场","city":"佳木斯","pinyin":"jiamusi","intl":false,"down":false},{"code":"JGN","name":"嘉峪关机场","city":"嘉峪关","pinyin":"jiayuguan","intl":false,"down":false},{"code":"JIL","name":"吉林二台子机场","city":"吉林","pinyin":"jilin","intl":false,"down":false},{"code":"TNA","name":"济南遥墙机场","city":"济南","pinyin":"jinan","intl":false,"down":false},{"code":"JNG","name":"济宁机场","city":"济宁","pinyin":"jining","intl":false,"down":false},{"code":"JDZ","name":"景德镇罗家机场","city":"景德镇","pinyin":"jingdezhen","intl":false,"down":false},{"code":"JHG","name":"景洪(西双版纳)机场","city":"西双版纳","pinyin":"jinghong","intl":false,"down":false},{"code":"JJN","name":"泉州晋江机场","city":"晋江","pinyin":"quanzhou","intl":false,"need":true,"down":false},{"code":"FOC","name":"福州长乐机场","city":"福州","pinyin":"fuzhou","intl":false,"down":false},{"code":"CHW","name":"酒泉机场","city":"酒泉","pinyin":"jiuquan","intl":false,"down":false},{"code":"JIU","name":"九江庐山机场","city":"九江","pinyin":"jiujiang","intl":false,"down":false},{"code":"KRY","name":"克拉玛依机场","city":"克拉玛依","pinyin":"karamay","intl":false,"down":false},{"code":"KHG","name":"喀什机场","city":"喀什","pinyin":"kashgar","intl":false,"down":false},{"code":"KRL","name":"库尔勒机场","city":"库尔勒","pinyin":"korla","intl":false,"down":false},{"code":"KMG","name":"昆明长水机场","city":"昆明","pinyin":"kunming","intl":false,"down":false},{"code":"KCA","name":"库车机场","city":"库车","pinyin":"kuqa","intl":false,"down":false},{"code":"LHW","name":"兰州机场","city":"兰州","pinyin":"lanzhou","intl":false,"down":false},{"code":"LNJ","name":"临沧机场","city":"临沧","pinyin":"lincang","intl":false,"down":false},{"code":"LXA","name":"拉萨贡嘎机场","city":"拉萨","pinyin":"lasa","intl":false,"down":false},{"code":"LYG","name":"连云港白塔埠机场","city":"连云港","pinyin":"lianyungang","intl":false,"down":false},{"code":"LJG","name":"丽江三义机场","city":"丽江","pinyin":"lijiang","intl":false,"down":false},{"code":"LYI","name":"临沂沭埠岭机场","city":"临沂","pinyin":"linyi","intl":false,"down":false},{"code":"LZH","name":"柳州白莲机场","city":"柳州","pinyin":"liuzhou","intl":false,"down":false},{"code":"LYA","name":"洛阳机场","city":"洛阳","pinyin":"luoyang","intl":false,"down":false},{"code":"LZO","name":"泸州蓝田机场","city":"泸州","pinyin":"luzhou","intl":false,"down":false},{"code":"MFM","name":"澳门国际机场","city":"澳门","pinyin":"macau","intl":false,"need":true,"down":false},{"code":"LUM","name":"芒市机场","city":"芒市","pinyin":"mangshi","intl":false,"down":false},{"code":"MXZ","name":"梅县机场","city":"梅县","pinyin":"meixian","intl":false,"need":true,"down":false},{"code":"MDG","name":"牡丹江海浪机场","city":"牡丹江","pinyin":"mudanjiang","intl":false,"down":false},{"code":"MIG","name":"绵阳南郊机场","city":"绵阳","pinyin":"mianyang","intl":false,"down":false},{"code":"KHN","name":"南昌昌北机场","city":"南昌","pinyin":"nanchang","intl":false,"down":false},{"code":"NAO","name":"南充高坪机场","city":"南充","pinyin":"nanchong","intl":false,"down":false},{"code":"NKG","name":"南京禄口机场","city":"南京","pinyin":"nanjing","intl":false,"down":false},{"code":"NNG","name":"南宁吴圩机场","city":"南宁","pinyin":"nanning","intl":false,"need":true,"down":false},{"code":"NTG","name":"南通兴东机场","city":"南通","pinyin":"nantong","intl":false,"down":false},{"code":"NNY","name":"南阳姜营机场","city":"南阳","pinyin":"nanyang","intl":false,"down":false},{"code":"NNN","name":"嫩江机场","city":"嫩江","pinyin":"heihe","intl":false,"down":false},{"code":"NGB","name":"宁波栎社机场","city":"宁波","pinyin":"ningbo","intl":false,"down":false},{"code":"IQM","name":"且末机场","city":"且末","pinyin":"qiemo","intl":false,"down":false},{"code":"TAO","name":"青岛流亭机场","city":"青岛","pinyin":"qingdao","intl":false,"down":false},{"code":"IQN","name":"庆阳机场","city":"庆阳","pinyin":"qingyang","intl":false,"down":false},{"code":"SHP","name":"秦皇岛山海关机场","city":"秦皇岛","pinyin":"qinhuangdao","intl":false,"down":false},{"code":"NDG","name":"齐齐哈尔三家子机场","city":"齐齐哈尔","pinyin":"qiqihaer","intl":false,"down":false},{"code":"JUZ","name":"衢州机场","city":"衢州","pinyin":"quzhou","intl":false,"down":false},{"code":"SYX","name":"三亚凤凰机场","city":"三亚","pinyin":"sanya","intl":false,"need":true,"down":false},{"code":"SHA","name":"上海虹桥机场","city":"上海","pinyin":"shanghai","intl":false,"need":true,"down":false},{"code":"PVG","name":"上海浦东机场","city":"上海浦东","pinyin":"shanghai","intl":false,"need":true,"down":false},{"code":"SWA","name":"揭阳潮汕机场","city":"揭阳","pinyin":"jieyang","intl":false,"down":false},{"code":"SHS","name":"荆州沙市机场","city":"沙市","pinyin":"shashi","intl":false,"down":false},{"code":"SZX","name":"深圳宝安机场","city":"深圳","pinyin":"shenzhen","intl":false,"need":true,"down":false},{"code":"SHE","name":"沈阳桃仙机场","city":"沈阳","pinyin":"shenyang","intl":false,"down":false},{"code":"SJW","name":"石家庄正定机场","city":"石家庄","pinyin":"shijiazhuang","intl":false,"down":false},{"code":"SYM","name":"普洱(思茅)机场","city":"普洱","pinyin":"puer","intl":false,"down":false},{"code":"SZV","name":"苏州机场","city":"苏州","pinyin":"suzhou","intl":false,"down":false},{"code":"TCG","name":"塔城机场","city":"塔城","pinyin":"tacheng","intl":false,"down":false},{"code":"TYN","name":"太原武宿机场","city":"太原","pinyin":"taiyuan","intl":false,"down":false},{"code":"TSN","name":"天津滨海机场","city":"天津","pinyin":"tianjin","intl":false,"need":true,"down":false},{"code":"TNH","name":"通化机场","city":"通化","pinyin":"tonghua","intl":false,"down":false},{"code":"TGO","name":"通辽机场","city":"通辽","pinyin":"tongliao","intl":false,"down":false},{"code":"TEN","name":"铜仁凤凰机场","city":"铜仁","pinyin":"tongren","intl":false,"down":false},{"code":"WXN","name":"重庆万州五桥机场","city":"万州","pinyin":"chongqing","intl":false,"need":true,"down":false},{"code":"WEF","name":"潍坊机场","city":"潍坊","pinyin":"weifang","intl":false,"down":false},{"code":"WEH","name":"威海文登大水泊机场","city":"威海","pinyin":"weihai","intl":false,"down":false},{"code":"WNZ","name":"温州龙湾机场","city":"温州","pinyin":"wenzhou","intl":false,"down":false},{"code":"WUH","name":"武汉天河机场","city":"武汉","pinyin":"wuhan","intl":false,"down":false},{"code":"CTG","name":"卡塔赫纳机场","city":"卡塔赫纳","pinyin":"cartagena","intl":false,"down":false},{"code":"HLH","name":"乌兰浩特机场","city":"乌兰浩特","pinyin":"ulanhot","intl":false,"down":false},{"code":"URC","name":"乌鲁木齐地窝堡机场","city":"乌鲁木齐","pinyin":"urumqi","intl":false,"down":false},{"code":"WUS","name":"武夷山机场","city":"武夷山","pinyin":"wuyishan","intl":false,"down":false},{"code":"WUZ","name":"广西梧州长洲岛机场","city":"梧州","pinyin":"wuzhou","intl":false,"down":false},{"code":"XMN","name":"厦门高崎机场","city":"厦门","pinyin":"xiamen","intl":false,"down":false},{"code":"XIY","name":"西安咸阳机场","city":"西安","pinyin":"xian","intl":false,"down":false},{"code":"XFN","name":"襄阳刘集机场","city":"襄阳","pinyin":"xiangyang","intl":false,"down":false},{"code":"XIC","name":"西昌青山机场","city":"西昌","pinyin":"xichang","intl":false,"down":false},{"code":"XIL","name":"锡林浩特机场","city":"锡林浩特","pinyin":"xilinhot","intl":false,"down":false},{"code":"XNN","name":"西宁曹家堡机场","city":"西宁","pinyin":"xining","intl":false,"down":false},{"code":"XUZ","name":"徐州观音机场","city":"徐州","pinyin":"xuzhou","intl":false,"down":false},{"code":"ENY","name":"延安二十里铺机场","city":"延安","pinyin":"yanan","intl":false,"down":false},{"code":"YNJ","name":"延吉朝阳川机场","city":"延吉","pinyin":"yanji","intl":false,"down":false},{"code":"YNT","name":"烟台莱山机场","city":"烟台","pinyin":"yantai","intl":false,"down":false},{"code":"YBP","name":"宜宾(菜坝)机场","city":"宜宾","pinyin":"yibin","intl":false,"down":false},{"code":"YIH","name":"宜昌三峡机场","city":"宜昌","pinyin":"yichang","intl":false,"down":false},{"code":"INC","name":"银川河东机场","city":"银川","pinyin":"yinchuan","intl":false,"down":false},{"code":"YIN","name":"伊宁机场","city":"伊宁","pinyin":"yining","intl":false,"down":false},{"code":"YIW","name":"义乌机场","city":"义乌","pinyin":"yiwu","intl":false,"down":false},{"code":"UYN","name":"榆林榆阳机场","city":"榆林","pinyin":"yulin","intl":false,"down":false},{"code":"ZAT","name":"昭通机场","city":"昭通","pinyin":"zhaotong","intl":false,"down":false},{"code":"ZHA","name":"湛江机场","city":"湛江","pinyin":"zhanjiang","intl":false,"down":false},{"code":"CGO","name":"郑州新郑机场","city":"郑州","pinyin":"zhengzhou","intl":false,"down":false},{"code":"HSN","name":"舟山普陀山朱家尖机场","city":"舟山","pinyin":"zhoushan","intl":false,"down":false},{"code":"ZUH","name":"珠海金湾机场","city":"珠海","pinyin":"zhuhai","intl":false,"down":false},{"code":"ZYI","name":"遵义新舟机场","city":"遵义","pinyin":"zunyi","intl":false,"down":false},{"code":"TSA","name":"台北松山机场","city":"台北","pinyin":"taibei","intl":false,"down":false},{"code":"TPE","name":"台北桃园机场","city":"桃园","pinyin":"taibei","intl":false,"down":false},{"code":"TNN","name":"台南机场","city":"台南","pinyin":"tainan","intl":false,"down":false},{"code":"KHH","name":"高雄机场","city":"高雄","pinyin":"gaoxiong","intl":false,"down":false},{"code":"TTG","name":"台东志航机场","city":"台东","pinyin":"taidong","intl":false,"down":false},{"code":"HUN","name":"花莲机场","city":"花莲","pinyin":"hualian","intl":false,"down":false},{"code":"CYI","name":"嘉义机场","city":"嘉义","pinyin":"jiayi","intl":false,"down":false},{"code":"OOL","name":"黄金海岸机场","city":"黄金海岸","pinyin":"gold coast","intl":false,"down":false},{"code":"JZH","name":"九寨沟黄龙(九黄)机场","city":"九寨沟","pinyin":"jiuzhaigou","intl":false,"down":false},{"code":"WUX","name":"无锡硕放机场","city":"无锡","pinyin":"wuxi","intl":false,"down":false},{"code":"NLT","name":"那拉提机场","city":"那拉提","pinyin":"nalati","intl":false,"down":false},{"code":"LZY","name":"林芝机场","city":"林芝","pinyin":"nyingchi","intl":false,"down":false},{"code":"WUA","name":"乌海机场","city":"乌海","pinyin":"wuhai","intl":false,"down":false},{"code":"PZI","name":"攀枝花保安营机场","city":"攀枝花","pinyin":"panzhihua","intl":false,"down":false},{"code":"NZH","name":"呼伦贝尔满洲里西郊机场","city":"满洲里","pinyin":"manzhouli","intl":false,"down":false},{"code":"KGT","name":"康定机场","city":"康定","pinyin":"kangding","intl":false,"down":false},{"code":"HJJ","name":"怀化芷江机场","city":"怀化","pinyin":"huaihua","intl":false,"down":false},{"code":"HDG","name":"河北邯郸机场机场","city":"邯郸","pinyin":"handan","intl":false,"down":false},{"code":"YNZ","name":"江苏盐城南洋机场","city":"盐城","pinyin":"yancheng","intl":false,"down":false},{"code":"AVA","name":"贵州安顺黄果树机场","city":"安顺","pinyin":"anshun","intl":false,"down":false},{"code":"AEB","name":"广西百色(田阳)机场","city":"百色","pinyin":"baise","intl":false,"down":false},{"code":"YUS","name":"青海玉树三江源(巴塘)机场","city":"玉树","pinyin":"yushu","intl":false,"down":false},{"code":"LLB","name":"荔波机场","city":"荔波","pinyin":"libo","intl":false,"down":false},{"code":"KJI","name":"新疆喀纳斯机场","city":"喀纳斯","pinyin":"buerjin","intl":false,"down":false},{"code":"DSN","name":"鄂尔多斯伊金霍洛机场","city":"鄂尔多斯","pinyin":"ordos","intl":false,"down":false},{"code":"HZH","name":"贵州黎平机场","city":"黎平","pinyin":"liping","intl":false,"down":false},{"code":"OHE","name":"漠河古莲机场","city":"漠河","pinyin":"mohe","intl":false,"down":false},{"code":"NBS","name":"长白山机场","city":"长白山","pinyin":"changbaishan","intl":false,"down":false},{"code":"TCZ","name":"腾冲(驼峰)机场","city":"腾冲","pinyin":"tengchong","intl":false,"down":false},{"code":"ZHY","name":"中卫(香山、沙坡头)机场","city":"中卫","pinyin":"zhongwei","intl":false,"down":false},{"code":"YCU","name":"运城关公机场","city":"运城","pinyin":"yuncheng","intl":false,"down":false},{"code":"DOY","name":"东营胜利机场","city":"东营","pinyin":"dongying","intl":false,"down":false},{"code":"THQ","name":"甘肃天水机场","city":"天水","pinyin":"tianshui","intl":false,"down":false},{"code":"CNI","name":"长海(大长山岛)机场","city":"长海","pinyin":"dalian","intl":false,"down":false},{"code":"ACX","name":"兴义机场","city":"兴义","pinyin":"xingyi","intl":false,"down":false},{"code":"LCX","name":"福建龙岩冠豸山机场","city":"龙岩","pinyin":"longyan","intl":false,"down":false},{"code":"PNJ","name":"蓬莱沙河口机场","city":"蓬莱","pinyin":"yantai","intl":false,"down":false},{"code":"YIC","name":"宜春明月山机场","city":"宜春","pinyin":"yichun","intl":false,"down":false}]